{"type": "FeatureCollection", "features": [ {"type": "Feature", "properties": {"norad_id": 33980, "name": "COSMOS 2251 DEB", "group": "cosmos-2251-debris", "lat": 41.503367884868005, "lon": 91.54184451122221, "alt_km": 714.871219450537, "timestamp": "2025-12-03T13:52:09.959954+00:00", "meta": {"OBJECT_NAME": "COSMOS 2251 DEB", "OBJECT_ID": "1993-036FP", "EPOCH": "2025-12-03T09:00:56.288736", "MEAN_MOTION": 14.58540369, "ECCENTRICITY": 0.00292109, "INCLINATION": 74.0217, "RA_OF_ASC_NODE": 77.2408, "ARG_OF_PERICENTER": 223.7972, "MEAN_ANOMALY": 198.3757, "EPHEMERIS_TYPE": 0, "CLASSIFICATION_TYPE": "U", "NORAD_CAT_ID": 33980, "ELEMENT_SET_NO": 999, "REV_AT_EPOCH": 88658, "BSTAR": 0.0012433749, "MEAN_MOTION_DOT": 5.789e-05, "MEAN_MOTION_DDOT": 0}, "tle": {"line1": "1 33980U 93036FP  25337.37565149  .00005789  00000+0  12434-2 0  9998", "line2": "2 33980  74.0217  77.2408 0029210 223.7972 198.3757 14.58540369886580"}}, "geometry": {"type": "Point", "coordinates": [91.54184451122221, 41.503367884868005]}}, {"type": "Feature", "properties": {"norad_id": 33982, "name": "COSMOS 2251 DEB", "group": "cosmos-2251-debris", "lat": -25.788123212220018, "lon": -154.67833701941188, "alt_km": 739.6183043117317, "timestamp": "2025-12-03T13:52:09.959965+00:00", "meta": {"OBJECT_NAME": "COSMOS 2251 DEB", "OBJECT_ID": "1993-036FR", "EPOCH": "2025-12-03T04:58:49.588896", "MEAN_MOTION": 14.60156937, "ECCENTRICITY": 0.00748252, "INCLINATION": 74.0704, "RA_OF_ASC_NODE": 18.0951, "ARG_OF_PERICENTER": 65.4205, "MEAN_ANOMALY": 354.7463, "EPHEMERIS_TYPE": 0, "CLASSIFICATION_TYPE": "U", "NORAD_CAT_ID": 33982, "ELEMENT_SET_NO": 999, "REV_AT_EPOCH": 89020, "BSTAR": 0.0004549341, "MEAN_MOTION_DOT": 2.248e-05, "MEAN_MOTION_DDOT": 0}, "tle": {"line1": "1 33982U 93036FR  25337.20751839  .00002248  00000+0  45493-3 0  9994", "line2": "2 33982  74.0704  18.0951 0074825  65.4205 354.7463 14.60156937890204"}}, "geometry": {"type": "Point", "coordinates": [-154.67833701941188, -25.788123212220018]}}, {"type": "Feature", "properties": {"norad_id": 33983, "name": "COSMOS 2251 DEB", "group": "cosmos-2251-debris", "lat": 73.82749817267495, "lon": -96.22575498999628, "alt_km": 731.4214945435124, "timestamp": "2025-12-03T13:52:09.959975+00:00", "meta": {"OBJECT_NAME": "COSMOS 2251 DEB", "OBJECT_ID": "1993-036FS", "EPOCH": "2025-12-02T23:04:24.272256", "MEAN_MOTION": 14.50604281, "ECCENTRICITY": 0.00214237, "INCLINATION": 74.0488, "RA_OF_ASC_NODE": 165.4101, "ARG_OF_PERICENTER": 269.3715, "MEAN_ANOMALY": 205.1177, "EPHEMERIS_TYPE": 0, "CLASSIFICATION_TYPE": "U", "NORAD_CAT_ID": 33983, "ELEMENT_SET_NO": 999, "REV_AT_EPOCH": 88487, "BSTAR": 0.00065803728, "MEAN_MOTION_DOT": 2.561e-05, "MEAN_MOTION_DDOT": 0}, "tle": {"line1": "1 33983U 93036FS  25336.96139204  .00002561  00000+0  65804-3 0  9999", "line2": "2 33983  74.0488 165.4101 0021423 269.3715 205.1177 14.50604281884871"}}, "geometry": {"type": "Point", "coordinates": [-96.22575498999628, 73.82749817267495]}}, {"type": "Feature", "properties": {"norad_id": 33984, "name": "COSMOS 2251 DEB", "group": "cosmos-2251-debris", "lat": 40.259983908551014, "lon": 18.84665951135401, "alt_km": 685.6093740043725, "timestamp": "2025-12-03T13:52:09.959985+00:00", "meta": {"OBJECT_NAME": "COSMOS 2251 DEB", "OBJECT_ID": "1993-036FT", "EPOCH": "2025-12-03T05:51:46.768320", "MEAN_MOTION": 14.66225332, "ECCENTRICITY": 0.00237193, "INCLINATION": 74.01, "RA_OF_ASC_NODE": 5.4364, "ARG_OF_PERICENTER": 205.7766, "MEAN_ANOMALY": 236.4667, "EPHEMERIS_TYPE": 0, "CLASSIFICATION_TYPE": "U", "NORAD_CAT_ID": 33984, "ELEMENT_SET_NO": 999, "REV_AT_EPOCH": 88927, "BSTAR": 0.0011296463, "MEAN_MOTION_DOT": 6.222e-05, "MEAN_MOTION_DDOT": 0}, "tle": {"line1": "1 33984U 93036FT  25337.24429130  .00006222  00000+0  11296-2 0  9995", "line2": "2 33984  74.0100   5.4364 0023719 205.7766 236.4667 14.66225332889270"}}, "geometry": {"type": "Point", "coordinates": [18.84665951135401, 40.259983908551014]}}, {"type": "Feature", "properties": {"norad_id": 33986, "name": "COSMOS 2251 DEB", "group": "cosmos-2251-debris", "lat": 73.86809058596772, "lon": 57.939379310380936, "alt_km": 725.4474628143353, "timestamp": "2025-12-03T13:52:09.959996+00:00", "meta": {"OBJECT_NAME": "COSMOS 2251 DEB", "OBJECT_ID": "1993-036FV", "EPOCH": "2025-12-03T05:11:50.754624", "MEAN_MOTION": 14.43121163, "ECCENTRICITY": 0.00399405, "INCLINATION": 74.0363, "RA_OF_ASC_NODE": 320.3611, "ARG_OF_PERICENTER": 35.4422, "MEAN_ANOMALY": 339.9984, "EPHEMERIS_TYPE": 0, "CLASSIFICATION_TYPE": "U", "NORAD_CAT_ID": 33986, "ELEMENT_SET_NO": 999, "REV_AT_EPOCH": 87891, "BSTAR": 0.0010906875, "MEAN_MOTION_DOT": 3.672e-05, "MEAN_MOTION_DDOT": 0}, "tle": {"line1": "1 33986U 93036FV  25337.21655966  .00003672  00000+0  10907-2 0  9996", "line2": "2 33986  74.0363 320.3611 0039940  35.4422 339.9984 14.43121163878919"}}, "geometry": {"type": "Point", "coordinates": [57.939379310380936, 73.86809058596772]}}, {"type": "Feature", "properties": {"norad_id": 33990, "name": "COSMOS 2251 DEB", "group": "cosmos-2251-debris", "lat": -24.14890944379171, "lon": -66.7230134502327, "alt_km": 780.1942849678444, "timestamp": "2025-12-03T13:52:09.960006+00:00", "meta": {"OBJECT_NAME": "COSMOS 2251 DEB", "OBJECT_ID": "1993-036FZ", "EPOCH": "2025-12-03T07:46:14.527200", "MEAN_MOTION": 13.49944819, "ECCENTRICITY": 0.04075861, "INCLINATION": 73.9276, "RA_OF_ASC_NODE": 301.1111, "ARG_OF_PERICENTER": 323.1121, "MEAN_ANOMALY": 216.3443, "EPHEMERIS_TYPE": 0, "CLASSIFICATION_TYPE": "U", "NORAD_CAT_ID": 33990, "ELEMENT_SET_NO": 999, "REV_AT_EPOCH": 82602, "BSTAR": 0.0020792119, "MEAN_MOTION_DOT": 2.191e-05, "MEAN_MOTION_DDOT": 0}, "tle": {"line1": "1 33990U 93036FZ  25337.32377925  .00002191  00000+0  20792-2 0  9997", "line2": "2 33990  73.9276 301.1111 0407586 323.1121 216.3443 13.49944819826024"}}, "geometry": {"type": "Point", "coordinates": [-66.7230134502327, -24.14890944379171]}}, {"type": "Feature", "properties": {"norad_id": 33992, "name": "COSMOS 2251 DEB", "group": "cosmos-2251-debris", "lat": -74.01358680774817, "lon": -95.02616027372846, "alt_km": 713.2024296087402, "timestamp": "2025-12-03T13:52:09.960017+00:00", "meta": {"OBJECT_NAME": "COSMOS 2251 DEB", "OBJECT_ID": "1993-036GB", "EPOCH": "2025-12-03T07:47:14.792928", "MEAN_MOTION": 14.66093245, "ECCENTRICITY": 0.00517695, "INCLINATION": 74.0241, "RA_OF_ASC_NODE": 355.8962, "ARG_OF_PERICENTER": 116.7728, "MEAN_ANOMALY": 255.8798, "EPHEMERIS_TYPE": 0, "CLASSIFICATION_TYPE": "U", "NORAD_CAT_ID": 33992, "ELEMENT_SET_NO": 999, "REV_AT_EPOCH": 88987, "BSTAR": 0.0009283823, "MEAN_MOTION_DOT": 5.172e-05, "MEAN_MOTION_DDOT": 0}, "tle": {"line1": "1 33992U 93036GB  25337.32447677  .00005172  00000+0  92838-3 0  9994", "line2": "2 33992  74.0241 355.8962 0051769 116.7728 255.8798 14.66093245889878"}}, "geometry": {"type": "Point", "coordinates": [-95.02616027372846, -74.01358680774817]}}, {"type": "Feature", "properties": {"norad_id": 33994, "name": "COSMOS 2251 DEB", "group": "cosmos-2251-debris", "lat": -68.85837748592753, "lon": 159.63885061235038, "alt_km": 752.9312342627, "timestamp": "2025-12-03T13:52:09.960027+00:00", "meta": {"OBJECT_NAME": "COSMOS 2251 DEB", "OBJECT_ID": "1993-036GD", "EPOCH": "2025-12-03T08:07:35.178240", "MEAN_MOTION": 14.41205422, "ECCENTRICITY": 0.00233039, "INCLINATION": 74.0425, "RA_OF_ASC_NODE": 207.806, "ARG_OF_PERICENTER": 343.9242, "MEAN_ANOMALY": 139.3541, "EPHEMERIS_TYPE": 0, "CLASSIFICATION_TYPE": "U", "NORAD_CAT_ID": 33994, "ELEMENT_SET_NO": 999, "REV_AT_EPOCH": 88284, "BSTAR": 0.00013910035, "MEAN_MOTION_DOT": 4.24e-06, "MEAN_MOTION_DDOT": 0}, "tle": {"line1": "1 33994U 93036GD  25337.33860160  .00000424  00000+0  13910-3 0  9992", "line2": "2 33994  74.0425 207.8060 0023303 343.9242 139.3541 14.41205422882844"}}, "geometry": {"type": "Point", "coordinates": [159.63885061235038, -68.85837748592753]}}, {"type": "Feature", "properties": {"norad_id": 33995, "name": "COSMOS 2251 DEB", "group": "cosmos-2251-debris", "lat": -33.02641689993365, "lon": -33.18174575957257, "alt_km": 760.8428562945955, "timestamp": "2025-12-03T13:52:09.960037+00:00", "meta": {"OBJECT_NAME": "COSMOS 2251 DEB", "OBJECT_ID": "1993-036GE", "EPOCH": "2025-12-03T04:30:35.522496", "MEAN_MOTION": 14.34683036, "ECCENTRICITY": 0.00608999, "INCLINATION": 74.0597, "RA_OF_ASC_NODE": 136.8242, "ARG_OF_PERICENTER": 153.8096, "MEAN_ANOMALY": 206.6159, "EPHEMERIS_TYPE": 0, "CLASSIFICATION_TYPE": "U", "NORAD_CAT_ID": 33995, "ELEMENT_SET_NO": 999, "REV_AT_EPOCH": 87382, "BSTAR": 0.0014459439, "MEAN_MOTION_DOT": 4.155e-05, "MEAN_MOTION_DDOT": 0}, "tle": {"line1": "1 33995U 93036GE  25337.18791114  .00004155  00000+0  14459-2 0  9991", "line2": "2 33995  74.0597 136.8242 0060899 153.8096 206.6159 14.34683036873828"}}, "geometry": {"type": "Point", "coordinates": [-33.18174575957257, -33.02641689993365]}}, {"type": "Feature", "properties": {"norad_id": 33999, "name": "COSMOS 2251 DEB", "group": "cosmos-2251-debris", "lat": -33.28040432772291, "lon": 79.9573269380826, "alt_km": 613.4995619822203, "timestamp": "2025-12-03T13:52:09.960048+00:00", "meta": {"OBJECT_NAME": "COSMOS 2251 DEB", "OBJECT_ID": "1993-036GJ", "EPOCH": "2025-12-03T04:48:45.359136", "MEAN_MOTION": 14.83001778, "ECCENTRICITY": 0.00446779, "INCLINATION": 73.9203, "RA_OF_ASC_NODE": 249.7953, "ARG_OF_PERICENTER": 148.1917, "MEAN_ANOMALY": 212.1973, "EPHEMERIS_TYPE": 0, "CLASSIFICATION_TYPE": "U", "NORAD_CAT_ID": 33999, "ELEMENT_SET_NO": 999, "REV_AT_EPOCH": 89109, "BSTAR": 0.0018736288, "MEAN_MOTION_DOT": 0.00015498, "MEAN_MOTION_DDOT": 0}, "tle": {"line1": "1 33999U 93036GJ  25337.20052499  .00015498  00000+0  18736-2 0  9998", "line2": "2 33999  73.9203 249.7953 0044677 148.1917 212.1973 14.83001778891098"}}, "geometry": {"type": "Point", "coordinates": [79.9573269380826, -33.28040432772291]}}]}